[{"OBJECT_NAME":"TRANSPORTER-16 OBJECT BM","OBJECT_ID":"2026-067BM","EPOCH":"2026-04-25T12:56:51.962784","MEAN_MOTION":14.91164977,"ECCENTRICITY":0.0002167,"INCLINATION":97.7484,"RA_OF_ASC_NODE":74.5748,"ARG_OF_PERICENTER":210.6665,"MEAN_ANOMALY":149.4427,"EPHEMERIS_TYPE":0,"CLASSIFICATION_TYPE":"U","NORAD_CAT_ID":68475,"ELEMENT_SET_NO":999,"REV_AT_EPOCH":335,"BSTAR":0.00082265,"MEAN_MOTION_DOT":8.117e-5,"MEAN_MOTION_DDOT":0},{"OBJECT_NAME":"TRANSPORTER-16 OBJECT BN","OBJECT_ID":"2026-067BN","EPOCH":"2026-04-25T14:01:40.934784","MEAN_MOTION":14.92339702,"ECCENTRICITY":0.0004092,"INCLINATION":97.7527,"RA_OF_ASC_NODE":74.6775,"ARG_OF_PERICENTER":82.4602,"MEAN_ANOMALY":277.7082,"EPHEMERIS_TYPE":0,"CLASSIFICATION_TYPE":"U","NORAD_CAT_ID":68476,"ELEMENT_SET_NO":999,"REV_AT_EPOCH":388,"BSTAR":0.00036263,"MEAN_MOTION_DOT":3.652e-5,"MEAN_MOTION_DDOT":0},{"OBJECT_NAME":"TRANSPORTER-16 OBJECT BP","OBJECT_ID":"2026-067BP","EPOCH":"2026-04-25T12:56:53.522304","MEAN_MOTION":14.91137396,"ECCENTRICITY":0.0002816,"INCLINATION":97.7491,"RA_OF_ASC_NODE":74.5755,"ARG_OF_PERICENTER":217.6527,"MEAN_ANOMALY":142.4494,"EPHEMERIS_TYPE":0,"CLASSIFICATION_TYPE":"U","NORAD_CAT_ID":68477,"ELEMENT_SET_NO":999,"REV_AT_EPOCH":328,"BSTAR":0.0007555,"MEAN_MOTION_DOT":7.444e-5,"MEAN_MOTION_DDOT":0},{"OBJECT_NAME":"FOSSASAT-2E25","OBJECT_ID":"2026-067BQ","EPOCH":"2026-04-24T13:58:59.021184","MEAN_MOTION":14.92040553,"ECCENTRICITY":0.00034757,"INCLINATION":97.7562,"RA_OF_ASC_NODE":73.6911,"ARG_OF_PERICENTER":94.3555,"MEAN_ANOMALY":265.8061,"EPHEMERIS_TYPE":0,"CLASSIFICATION_TYPE":"U","NORAD_CAT_ID":68478,"ELEMENT_SET_NO":999,"REV_AT_EPOCH":373,"BSTAR":0.00020998656,"MEAN_MOTION_DOT":2.075e-5,"MEAN_MOTION_DDOT":0},{"OBJECT_NAME":"TRANSPORTER-16 OBJECT BR","OBJECT_ID":"2026-067BR","EPOCH":"2026-04-25T14:06:24.693120","MEAN_MOTION":14.92148166,"ECCENTRICITY":0.0003213,"INCLINATION":97.7514,"RA_OF_ASC_NODE":74.6696,"ARG_OF_PERICENTER":81.7722,"MEAN_ANOMALY":278.3861,"EPHEMERIS_TYPE":0,"CLASSIFICATION_TYPE":"U","NORAD_CAT_ID":68479,"ELEMENT_SET_NO":999,"REV_AT_EPOCH":388,"BSTAR":0.00048819,"MEAN_MOTION_DOT":4.913e-5,"MEAN_MOTION_DDOT":0},{"OBJECT_NAME":"TRANSPORTER-16 OBJECT BS","OBJECT_ID":"2026-067BS","EPOCH":"2026-04-25T15:31:31.168128","MEAN_MOTION":14.92592974,"ECCENTRICITY":0.0005717,"INCLINATION":97.7591,"RA_OF_ASC_NODE":74.7666,"ARG_OF_PERICENTER":85.8437,"MEAN_ANOMALY":274.3436,"EPHEMERIS_TYPE":0,"CLASSIFICATION_TYPE":"U","NORAD_CAT_ID":68480,"ELEMENT_SET_NO":999,"REV_AT_EPOCH":389,"BSTAR":0.00031938,"MEAN_MOTION_DOT":3.231e-5,"MEAN_MOTION_DDOT":0},{"OBJECT_NAME":"TORO3","OBJECT_ID":"2026-067BT","EPOCH":"2026-04-25T14:09:11.986848","MEAN_MOTION":14.91997938,"ECCENTRICITY":0.0004177,"INCLINATION":97.7633,"RA_OF_ASC_NODE":74.6979,"ARG_OF_PERICENTER":114.0687,"MEAN_ANOMALY":246.0969,"EPHEMERIS_TYPE":0,"CLASSIFICATION_TYPE":"U","NORAD_CAT_ID":68481,"ELEMENT_SET_NO":999,"REV_AT_EPOCH":388,"BSTAR":0.00017125,"MEAN_MOTION_DOT":1.68e-5,"MEAN_MOTION_DDOT":0},{"OBJECT_NAME":"TRANSPORTER-16 OBJECT BU","OBJECT_ID":"2026-067BU","EPOCH":"2026-04-25T15:31:32.689632","MEAN_MOTION":14.92592258,"ECCENTRICITY":0.000519,"INCLINATION":97.7538,"RA_OF_ASC_NODE":74.7528,"ARG_OF_PERICENTER":73.4194,"MEAN_ANOMALY":286.7595,"EPHEMERIS_TYPE":0,"CLASSIFICATION_TYPE":"U","NORAD_CAT_ID":68482,"ELEMENT_SET_NO":999,"REV_AT_EPOCH":389,"BSTAR":0.0003332,"MEAN_MOTION_DOT":3.373e-5,"MEAN_MOTION_DDOT":0},{"OBJECT_NAME":"TRANSPORTER-16 OBJECT BV","OBJECT_ID":"2026-067BV","EPOCH":"2026-04-25T18:51:02.676096","MEAN_MOTION":14.92321292,"ECCENTRICITY":0.0004913,"INCLINATION":97.7612,"RA_OF_ASC_NODE":74.8976,"ARG_OF_PERICENTER":95.5695,"MEAN_ANOMALY":264.6084,"EPHEMERIS_TYPE":0,"CLASSIFICATION_TYPE":"U","NORAD_CAT_ID":68483,"ELEMENT_SET_NO":999,"REV_AT_EPOCH":391,"BSTAR":0.00042449,"MEAN_MOTION_DOT":4.283e-5,"MEAN_MOTION_DDOT":0},{"OBJECT_NAME":"TRANSPORTER-16 OBJECT BW","OBJECT_ID":"2026-067BW","EPOCH":"2026-04-24T06:01:09.075072","MEAN_MOTION":14.91861678,"ECCENTRICITY":0.00028922,"INCLINATION":97.7583,"RA_OF_ASC_NODE":73.3622,"ARG_OF_PERICENTER":116.5259,"MEAN_ANOMALY":243.6256,"EPHEMERIS_TYPE":0,"CLASSIFICATION_TYPE":"U","NORAD_CAT_ID":68484,"ELEMENT_SET_NO":999,"REV_AT_EPOCH":368,"BSTAR":0.0001392146,"MEAN_MOTION_DOT":1.35e-5,"MEAN_MOTION_DDOT":0},{"OBJECT_NAME":"TRANSPORTER-16 OBJECT BX","OBJECT_ID":"2026-067BX","EPOCH":"2026-04-25T18:59:44.431872","MEAN_MOTION":14.92062502,"ECCENTRICITY":0.0003026,"INCLINATION":97.7549,"RA_OF_ASC_NODE":74.8734,"ARG_OF_PERICENTER":104.0611,"MEAN_ANOMALY":256.0945,"EPHEMERIS_TYPE":0,"CLASSIFICATION_TYPE":"U","NORAD_CAT_ID":68485,"ELEMENT_SET_NO":999,"REV_AT_EPOCH":391,"BSTAR":0.00065316,"MEAN_MOTION_DOT":6.579e-5,"MEAN_MOTION_DDOT":0},{"OBJECT_NAME":"TRANSPORTER-16 OBJECT BY","OBJECT_ID":"2026-067BY","EPOCH":"2026-04-25T12:37:34.041216","MEAN_MOTION":14.91798481,"ECCENTRICITY":0.000239,"INCLINATION":97.7547,"RA_OF_ASC_NODE":74.6045,"ARG_OF_PERICENTER":105.3724,"MEAN_ANOMALY":254.7759,"EPHEMERIS_TYPE":0,"CLASSIFICATION_TYPE":"U","NORAD_CAT_ID":68486,"ELEMENT_SET_NO":999,"REV_AT_EPOCH":387,"BSTAR":0.0002249,"MEAN_MOTION_DOT":2.213e-5,"MEAN_MOTION_DDOT":0},{"OBJECT_NAME":"TRANSPORTER-16 OBJECT BZ","OBJECT_ID":"2026-067BZ","EPOCH":"2026-04-25T14:03:20.437344","MEAN_MOTION":14.92275825,"ECCENTRICITY":0.0003501,"INCLINATION":97.7507,"RA_OF_ASC_NODE":74.6713,"ARG_OF_PERICENTER":74.7048,"MEAN_ANOMALY":285.4558,"EPHEMERIS_TYPE":0,"CLASSIFICATION_TYPE":"U","NORAD_CAT_ID":68487,"ELEMENT_SET_NO":999,"REV_AT_EPOCH":388,"BSTAR":0.00037401,"MEAN_MOTION_DOT":3.762e-5,"MEAN_MOTION_DDOT":0},{"OBJECT_NAME":"TRANSPORTER-16 OBJECT CA","OBJECT_ID":"2026-067CA","EPOCH":"2026-04-25T12:44:37.430592","MEAN_MOTION":14.91592036,"ECCENTRICITY":0.000144,"INCLINATION":97.7537,"RA_OF_ASC_NODE":74.5968,"ARG_OF_PERICENTER":130.3296,"MEAN_ANOMALY":229.8049,"EPHEMERIS_TYPE":0,"CLASSIFICATION_TYPE":"U","NORAD_CAT_ID":68488,"ELEMENT_SET_NO":999,"REV_AT_EPOCH":387,"BSTAR":0.00010506,"MEAN_MOTION_DOT":9.99e-6,"MEAN_MOTION_DDOT":0},{"OBJECT_NAME":"TRANSPORTER-16 OBJECT CB","OBJECT_ID":"2026-067CB","EPOCH":"2026-04-25T14:26:54.883104","MEAN_MOTION":14.91303716,"ECCENTRICITY":8.3e-5,"INCLINATION":97.7505,"RA_OF_ASC_NODE":74.6474,"ARG_OF_PERICENTER":188.7979,"MEAN_ANOMALY":171.3225,"EPHEMERIS_TYPE":0,"CLASSIFICATION_TYPE":"U","NORAD_CAT_ID":68489,"ELEMENT_SET_NO":999,"REV_AT_EPOCH":388,"BSTAR":0.00021549,"MEAN_MOTION_DOT":2.091e-5,"MEAN_MOTION_DDOT":0},{"OBJECT_NAME":"TRANSPORTER-16 OBJECT CC","OBJECT_ID":"2026-067CC","EPOCH":"2026-04-25T12:48:17.270208","MEAN_MOTION":14.91374861,"ECCENTRICITY":0.0002223,"INCLINATION":97.758,"RA_OF_ASC_NODE":74.604,"ARG_OF_PERICENTER":156.3004,"MEAN_ANOMALY":203.8318,"EPHEMERIS_TYPE":0,"CLASSIFICATION_TYPE":"U","NORAD_CAT_ID":68490,"ELEMENT_SET_NO":999,"REV_AT_EPOCH":387,"BSTAR":0.00017267,"MEAN_MOTION_DOT":1.668e-5,"MEAN_MOTION_DDOT":0}]
